      2.10          N: GNSS NAV DATA                        RINEX VERSION / TYPE
fic2rin                                 12/05/2019 00:17:31 PGM / RUN BY / DATE
                                                            END OF HEADER
11 19 12  4 16  0  0.0-4.290984943509e-04 1.102762325900e-11 0.000000000000e+00
    5.200000000000e+01 2.165625000000e+01 5.674164923173e-09-1.208392489369e+00
    1.221895217896e-06 1.632921909913e-02 6.150454282761e-06 5.153751062393e+03
    3.168000000000e+05-2.831220626831e-07-5.413907174965e-01 6.332993507385e-08
    9.115231906339e-01 2.405312500000e+02 1.974512404630e+00-8.929300512636e-09
    3.217991185107e-10 1.000000000000e+00 2.082000000000e+03 0.000000000000e+00
    2.400000000000e+00 0.000000000000e+00-1.210719347000e-08 5.200000000000e+01
    3.096000000000e+05 4.000000000000e+00
12 19 12  4 16  0  0.0 1.767287030816e-04-3.979039320257e-12 0.000000000000e+00
    7.800000000000e+01 4.156250000000e+00 4.087313110140e-09-1.654916294638e+00
    2.402812242508e-07 7.654505316168e-03 6.854534149170e-06 5.153784051895e+03
    3.168000000000e+05 2.123415470123e-07-2.110463346435e+00-7.450580596924e-09
    9.804791158164e-01 2.579062500000e+02 1.092901767677e+00-7.821040063426e-09
   -3.300137463972e-10 1.000000000000e+00 2.082000000000e+03 0.000000000000e+00
    2.400000000000e+00 0.000000000000e+00-1.257285475731e-08 7.800000000000e+01
    3.096000000000e+05 4.000000000000e+00
31 19 12  4 16  0  0.0-7.565598934889e-06-2.501110429876e-12 0.000000000000e+00
    2.300000000000e+01 3.815625000000e+01 4.728054085288e-09-1.398472364170e+00
    1.873821020126e-06 9.591770824045e-03 6.591901183128e-06 5.153740764618e+03
    3.168000000000e+05 3.539025783539e-08 3.084326353796e+00-1.098960638046e-07
    9.590265939814e-01 2.520000000000e+02 7.652109296496e-02-8.147482232481e-09
    8.143196339671e-11 1.000000000000e+00 2.082000000000e+03 0.000000000000e+00
    2.400000000000e+00 0.000000000000e+00-1.350417733192e-08 2.300000000000e+01
    3.096000000000e+05 4.000000000000e+00
30 19 12  4 16  0  0.0-9.840121492743e-05-8.526512829121e-12 0.000000000000e+00
    2.700000000000e+01 4.284375000000e+01 5.131285167195e-09-1.094349304635e+00
    2.123415470123e-06 4.157974268310e-03 6.625428795815e-06 5.153718126297e+03
    3.168000000000e+05 6.891787052155e-08 3.094803341519e+00-1.098960638046e-07
    9.399138252864e-01 2.402187500000e+02-2.917757627928e+00-8.326418257313e-09
   -3.893019302737e-11 1.000000000000e+00 2.082000000000e+03 0.000000000000e+00
    2.400000000000e+00 0.000000000000e+00 3.725290298462e-09 2.700000000000e+01
    3.096000000000e+05 4.000000000000e+00
19 19 12  4 16  0  0.0-2.308771945536e-04 5.229594535194e-12 0.000000000000e+00
    2.400000000000e+01 3.193750000000e+01 3.833731118861e-09-1.828986182696e+00
    1.896172761917e-06 9.186839102767e-03 8.124858140945e-06 5.153663986206e+03
    3.168000000000e+05 1.285225152969e-07-1.030348699919e+00 1.639127731323e-07
    9.821882781185e-01 2.289375000000e+02 1.535095230101e+00-7.741036730966e-09
    1.439345668810e-10 1.000000000000e+00 2.082000000000e+03 0.000000000000e+00
    2.400000000000e+00 0.000000000000e+00-1.536682248116e-08 2.400000000000e+01
    3.096000000000e+05 4.000000000000e+00
29 19 12  4 16  0  0.0 2.720346674323e-05-9.890754881781e-12 0.000000000000e+00
    2.600000000000e+01 1.275000000000e+01 3.788014928884e-09 1.982865766341e+00
    7.469207048416e-07 1.045828452334e-03 7.936730980873e-06 5.153658826828e+03
    3.168000000000e+05 2.235174179077e-08-1.064810048150e+00 3.911554813385e-08
    9.857180185635e-01 2.389687500000e+02 2.042587117701e+00-7.725321790661e-09
    8.928943354902e-11 1.000000000000e+00 2.082000000000e+03 0.000000000000e+00
    2.400000000000e+00 0.000000000000e+00-9.778887033463e-09 2.600000000000e+01
    3.096000000000e+05 4.000000000000e+00
22 19 12  4 16  0  0.0-7.757060229778e-04-2.160049916711e-12 0.000000000000e+00
    5.400000000000e+01-5.943750000000e+01 5.530587514026e-09 8.729172725996e-01
   -3.179535269737e-06 6.880415487103e-03 6.733462214470e-06 5.153633399963e+03
    3.168000000000e+05-9.126961231232e-08 8.827344857317e-01-1.247972249985e-07
    9.289022565761e-01 2.363437500000e+02-1.259330638576e+00-8.628930858177e-09
    3.392998474863e-11 1.000000000000e+00 2.082000000000e+03 0.000000000000e+00
    2.400000000000e+00 0.000000000000e+00-1.816079020500e-08 5.400000000000e+01
    3.096000000000e+05 4.000000000000e+00
23 19 12  4 16  0  0.0-1.516109332442e-04 2.273736754432e-12 0.000000000000e+00
    3.100000000000e+01-4.687500000000e-01 5.047710257393e-09 3.656377524286e-01
    1.527369022369e-07 1.325734180864e-02 9.687617421150e-06 5.153713056564e+03
    3.168000000000e+05-1.378357410431e-07 1.987727067988e+00 1.564621925354e-07
    9.430767214680e-01 1.841250000000e+02-2.217615195157e+00-8.407850220710e-09
   -1.500062483624e-11 1.000000000000e+00 2.082000000000e+03 0.000000000000e+00
    2.400000000000e+00 0.000000000000e+00-2.048909664154e-08 3.100000000000e+01
    3.096000000000e+05 4.000000000000e+00
27 19 12  4 16  0  0.0-1.401416957378e-04-1.170974428533e-11 0.000000000000e+00
    7.800000000000e+01 1.934375000000e+01 3.955521906222e-09 1.817357912092e+00
    9.872019290924e-07 7.428972283378e-03 7.562339305878e-06 5.153661365509e+03
    3.168000000000e+05-1.266598701477e-07-1.133607075559e+00 7.264316082001e-08
    9.784149822941e-01 2.430312500000e+02 4.988999707635e-01-7.902114869088e-09
   -1.428630936784e-12 1.000000000000e+00 2.082000000000e+03 0.000000000000e+00
    3.400000000000e+00 0.000000000000e+00 1.862645149231e-09 7.800000000000e+01
    3.096000000000e+05 4.000000000000e+00
25 19 12  4 16  0  0.0-1.741899177432e-05 0.000000000000e+00 0.000000000000e+00
    5.200000000000e+01 3.125000000000e+00 4.308750905342e-09-2.048563467211e+00
    1.993030309677e-07 8.671152521856e-03 6.478279829025e-06 5.153623218536e+03
    3.168000000000e+05 4.097819328308e-08-2.177199152992e+00-1.378357410431e-07
    9.678825953265e-01 2.588437500000e+02 8.852826052197e-01-7.876042354492e-09
   -2.317953694933e-10 1.000000000000e+00 2.082000000000e+03 0.000000000000e+00
    2.400000000000e+00 0.000000000000e+00 5.587935447693e-09 5.200000000000e+01
    3.096000000000e+05 4.000000000000e+00
21 19 12  4 16  0  0.0-7.600430399179e-05 5.798028723802e-12 0.000000000000e+00
    5.600000000000e+01 8.375000000000e+00 4.582690887470e-09-2.228723623673e+00
    7.916241884232e-07 2.463090803940e-02 4.556030035019e-06 5.153608428955e+03
    3.168000000000e+05 2.756714820862e-07-1.477466975116e-01 2.980232238770e-07
    9.512395249330e-01 2.782812500000e+02-1.392716549560e+00-7.878899616366e-09
    3.357282701443e-10 1.000000000000e+00 2.082000000000e+03 0.000000000000e+00
    2.400000000000e+00 0.000000000000e+00-1.024454832077e-08 5.600000000000e+01
    3.096000000000e+05 4.000000000000e+00
32 19 12  4 16  0  0.0 1.453342847526e-04 1.159605744760e-11 0.000000000000e+00
    5.200000000000e+01-5.187500000000e+00 4.569833209039e-09 2.589894750735e+00
   -2.756714820862e-07 3.314185771160e-03 9.424984455109e-06 5.153657335281e+03
    3.168000000000e+05-4.284083843231e-08 2.002247055112e+00-8.568167686462e-08
    9.564604879156e-01 1.960312500000e+02-2.548078919795e+00-7.912829601114e-09
    5.035924052165e-11 1.000000000000e+00 2.082000000000e+03 0.000000000000e+00
    2.400000000000e+00 0.000000000000e+00 4.656612873077e-10 5.200000000000e+01
    3.096000000000e+05 4.000000000000e+00
26 19 12  4 16  0  0.0 9.846221655607e-05 8.185452315956e-12 0.000000000000e+00
    4.700000000000e+01 1.281250000000e+01 4.760555439100e-09-2.601885615825e+00
    6.612390279770e-07 4.308170522563e-03 6.675720214844e-06 5.153710437775e+03
    3.168000000000e+05-6.332993507385e-08-2.209283900102e+00-1.490116119385e-08
    9.490810185654e-01 2.469375000000e+02 1.314244611449e-01-8.219628094789e-09
   -2.257236880119e-10 1.000000000000e+00 2.082000000000e+03 0.000000000000e+00
    2.400000000000e+00 0.000000000000e+00 7.450580596924e-09 4.700000000000e+01
    3.096000000000e+05 4.000000000000e+00
28 19 12  4 16  0  0.0 7.521975785494e-04-1.818989403546e-12 0.000000000000e+00
    7.800000000000e+01 1.450000000000e+01 3.905519823434e-09 2.555807333143e+00
    7.487833499908e-07 1.906625553966e-02 6.912276148796e-06 5.153709827423e+03
    3.168000000000e+05 2.365559339523e-07-2.087724913757e+00-2.607703208923e-08
    9.797444763929e-01 2.511250000000e+02-1.433431160139e+00-7.506741257333e-09
   -3.971594004260e-10 1.000000000000e+00 2.082000000000e+03 0.000000000000e+00
    3.400000000000e+00 0.000000000000e+00-1.117587089539e-08 7.800000000000e+01
    3.096000000000e+05 4.000000000000e+00
20 19 12  4 16  0  0.0 5.275984294713e-04 1.136868377216e-13 0.000000000000e+00
    5.200000000000e+01-6.153125000000e+01 5.328436236471e-09-8.144725176839e-01
   -3.289431333542e-06 5.092290812172e-03 6.001442670822e-06 5.153620853424e+03
    3.168000000000e+05-4.656612873077e-08 8.346899840968e-01-8.381903171539e-08
    9.322308165268e-01 2.494375000000e+02 2.509796055034e+00-8.510354490424e-09
    8.178912113090e-11 1.000000000000e+00 2.082000000000e+03 0.000000000000e+00
    2.400000000000e+00 0.000000000000e+00-8.381903171539e-09 5.200000000000e+01
    3.096000000000e+05 4.000000000000e+00
24 19 12  4 16  0  0.0-5.772802978754e-06-4.547473508865e-13 0.000000000000e+00
    3.000000000000e+00 4.196875000000e+01 5.330936340611e-09-1.269747105378e-01
    2.203509211540e-06 9.196282131597e-03 6.569549441338e-06 5.153664808273e+03
    3.168000000000e+05 2.793967723846e-08 3.000347965702e+00 9.313225746155e-08
    9.377300045844e-01 2.372812500000e+02 6.304654937842e-01-8.561428046414e-09
   -3.428714248282e-11 1.000000000000e+00 2.082000000000e+03 0.000000000000e+00
    3.400000000000e+00 0.000000000000e+00 2.793967723846e-09 2.590000000000e+02
    3.096000000000e+05 4.000000000000e+00
